[{"OBJECT_NAME":"FORTE","OBJECT_ID":"1997-047A","EPOCH":"2026-03-09T21:41:12.798240","MEAN_MOTION":14.27898785,"ECCENTRICITY":0.00196357,"INCLINATION":69.9517,"RA_OF_ASC_NODE":238.2652,"ARG_OF_PERICENTER":49.0734,"MEAN_ANOMALY":311.2084,"EPHEMERIS_TYPE":0,"CLASSIFICATION_TYPE":"U","NORAD_CAT_ID":24920,"ELEMENT_SET_NO":999,"REV_AT_EPOCH":48451,"BSTAR":0.0001374801,"MEAN_MOTION_DOT":2.83e-6,"MEAN_MOTION_DDOT":0},{"OBJECT_NAME":"OPS 5390 (DMSP 5D-1 F4)","OBJECT_ID":"1979-050A","EPOCH":"2026-03-09T20:13:16.047840","MEAN_MOTION":14.29306448,"ECCENTRICITY":0.00129928,"INCLINATION":98.6197,"RA_OF_ASC_NODE":24.5105,"ARG_OF_PERICENTER":74.1708,"MEAN_ANOMALY":286.0906,"EPHEMERIS_TYPE":0,"CLASSIFICATION_TYPE":"U","NORAD_CAT_ID":11389,"ELEMENT_SET_NO":999,"REV_AT_EPOCH":36151,"BSTAR":0.00011672706,"MEAN_MOTION_DOT":2.53e-6,"MEAN_MOTION_DDOT":0}]
